INTELSAT 23 (IS-23)     
1 38867U 12057A   26201.84350374 -.00000285  00000+0  00000+0 0  9996
2 38867   0.0187  24.4340 0000474 102.8760  61.9590  1.00276145 50298
FM-6                    
1 39360U 13058A   26201.31442012 -.00000017  00000+0  00000+0 0  9993
2 39360   0.0094  30.1160 0001421 148.1432 116.6637  1.00266599 46400
INTELSAT 30 (IS-30)     
1 40271U 14062A   26201.81338093 -.00000151  00000+0  00000+0 0  9999
2 40271   0.0150  52.5146 0001751 341.2520 102.5878  1.00272290  7131
DIRECTV 14              
1 40333U 14078B   26201.44975230 -.00000127  00000+0  00000+0 0  9997
2 40333   0.0151  57.4012 0000485 335.1034 328.3806  1.00274313 42374
DIRECTV 15              
1 40663U 15026A   26201.66924609 -.00000103  00000+0  00000+0 0  9999
2 40663   0.0204  79.1591 0000383 332.8671  24.4550  1.00271127 40794
SKY MEXICO-1            
1 40664U 15026B   26201.81658759 -.00000234  00000+0  00000+0 0  9992
2 40664   0.0313 263.8149 0002625 229.7750  20.1676  1.00270788 40794
INTELSAT 34 (IS-34)     
1 40874U 15039A   26201.74988037 -.00000286  00000+0  00000+0 0  9993
2 40874   0.0123 344.4602 0000729  41.9549 126.5734  1.00272186 39977
INTELSAT 31 (IS-31)     
1 41581U 16035A   26201.81338093 -.00000151  00000+0  00000+0 0  9996
2 41581   0.0314 260.0992 0001014  53.5948 182.6577  1.00271225 37025
INTELSAT 36 (IS-36)     
1 41747U 16053A   26201.84574427 -.00000024  00000+0  00000+0 0  9995
2 41747   0.0094  24.9134 0002449 324.3167 322.3424  1.00271703 36297
INTELSAT 32E (IS-32E)   
1 41945U 17007B   26201.58341949 -.00000270  00000+0  00000+0 0  9990
2 41945   0.0128  27.7863 0000632 350.1536  87.2632  1.00273345 34564
INTELSAT 35E (IS-35E)   
1 42818U 17041A   26201.83794926  .00000000  00000+0  00000+0 0  9993
2 42818   0.0213  57.1209 0002175  59.2462  89.4146  1.00269814 33153
INTELSAT 37E (IS-37E)   
1 42950U 17059A   26201.82863432 -.00000141  00000+0  00000+0 0  9994
2 42950   0.0186  65.5236 0002851  58.2327  95.1452  1.00272334 32404
AZERSPACE 2 (IS-38)     
1 43632U 18074A   26201.84112367  .00000136  00000+0  00000+0 0  9999
2 43632   0.0162  53.8449 0001531  57.1460 175.5281  1.00272210 28784
HORIZONS-3E             
1 43633U 18074B   26201.56225552 -.00000032  00000+0  00000+0 0  9996
2 43633   0.0423 238.4699 0000569  58.8170  12.4432  1.00271973 28679
AT&T T-16               
1 44333U 19034A   26201.72266681 -.00000115  00000+0  00000+0 0  9999
2 44333   0.0140  69.7828 0000549 297.6234  90.3851  1.00269337 25975
INTELSAT 39 (IS-39)     
1 44476U 19049B   26201.74469419  .00000000  00000+0  00000+0 0  9991
2 44476   0.0184  50.2484 0000185 231.2802 347.0224  1.00259151 25468
GALAXY 30 (G-30)        
1 46114U 20056C   26201.66482605  .00000036  00000+0  00000+0 0  9994
2 46114   0.0184  58.7653 0002159  56.9350 297.0671  1.00270661 21626
GALAXY 33 (G-33)        
1 54026U 22128A   26201.73454031  .00000078  00000+0  00000+0 0  9993
2 54026   0.0184 315.6670 0001801 166.6525 307.6068  1.00275650 14079
GALAXY 34 (G-34)        
1 54027U 22128B   26201.66404605  .00000000  00000+0  00000+0 0  9993
2 54027   0.0167  50.8823 0001858  70.9665 286.6531  1.00274627 14246
GALAXY 31 (G-31)        
1 54243U 22153A   26201.66569272  .00000012  00000+0  00000+0 0  9996
2 54243   0.0033 232.6163 0001253 248.9777 295.4788  1.00272888  7460
GALAXY 32 (G-32)        
1 54244U 22153B   26201.81407426 -.00000174  00000+0  00000+0 0  9996
2 54244   0.0098  38.3156 0001457  14.6512  87.6828  1.00271812 13487
GALAXY 35 (G-35)        
1 54741U 22170A   26201.81364093 -.00000163  00000+0  00000+0 0  9997
2 54741   0.0211  95.2906 0002017  21.4737  21.6193  1.00272206 13233
GALAXY 36 (G-36)        
1 54742U 22170B   26201.81459426 -.00000185  00000+0  00000+0 0  9997
2 54742   0.0202 134.5009 0002738 325.9776  42.3557  1.00271684 13110
GALAXY 37 (G-37)        
1 57493U 23112A   26201.59317865  .00000047  00000+0  00000+0 0  9991
2 57493   0.0202  57.4932 0002044  59.4893 267.9196  1.00272474 10875
